[{"OBJECT_NAME":"STARLINK-5622","OBJECT_ID":"2023-013AD","EPOCH":"2026-03-09T00:46:27.466176","MEAN_MOTION":15.02533237,"ECCENTRICITY":0.00013033,"INCLINATION":43.0042,"RA_OF_ASC_NODE":303.637,"ARG_OF_PERICENTER":263.0117,"MEAN_ANOMALY":97.0577,"EPHEMERIS_TYPE":0,"CLASSIFICATION_TYPE":"U","NORAD_CAT_ID":55358,"ELEMENT_SET_NO":999,"REV_AT_EPOCH":17161,"BSTAR":-4.1089785e-5,"MEAN_MOTION_DOT":-7.59e-6,"MEAN_MOTION_DDOT":0},{"OBJECT_NAME":"COSMOS 2251 DEB","OBJECT_ID":"1993-036AXJ","EPOCH":"2026-03-07T16:14:39.475392","MEAN_MOTION":15.02350149,"ECCENTRICITY":0.00052276,"INCLINATION":74.0329,"RA_OF_ASC_NODE":161.7612,"ARG_OF_PERICENTER":248.7206,"MEAN_ANOMALY":111.3424,"EPHEMERIS_TYPE":0,"CLASSIFICATION_TYPE":"U","NORAD_CAT_ID":36047,"ELEMENT_SET_NO":999,"REV_AT_EPOCH":67212,"BSTAR":0.0041103158,"MEAN_MOTION_DOT":0.00054783,"MEAN_MOTION_DDOT":0}]
